ONEWEB-0116             
1 48046U 21025E   24231.65970524 -.00000130  00000+0 -39047-3 0  9993
2 48046  87.8878  93.0533 0001592  79.7110 280.4198 13.13470077166025
ONEWEB-0150             
1 48047U 21025F   24231.71048793  .00000078  00000+0  17827-3 0  9996
2 48047  87.8871  93.0582 0001885  86.4272 273.7073 13.13469683165928
ONEWEB-0107             
1 48048U 21025G   24231.63589902 -.00000110  00000+0 -33603-3 0  9999
2 48048  87.8871  93.0708 0002015  87.2715 272.8645 13.13470001165893
ONEWEB-0101             
1 48049U 21025H   24232.36117826  .00000152  00000+0  38020-3 0  9995
2 48049  87.8878  92.9464 0001647  83.9788 276.1529 13.13470390165968
ONEWEB-0113             
1 48050U 21025J   24231.65335230 -.00000134  00000+0 -40272-3 0  9993
2 48050  87.8879  93.0681 0001757  76.1377 283.9948 13.13470775165951
ONEWEB-0112             
1 48051U 21025K   24232.32625277 -.00000132  00000+0 -39585-3 0  9995
2 48051  87.8871  92.9307 0001777  79.8968 280.2361 13.13471630166068
ONEWEB-0156             
1 48052U 21025L   24231.65017343 -.00000178  00000+0 -52277-3 0  9993
2 48052  87.8874  93.0653 0001847  80.2925 279.8413 13.13472526165948
ONEWEB-0161             
1 48053U 21025M   24232.30880722  .00000245  00000+0  63724-3 0  9998
2 48053  87.8876  92.9429 0001742  87.0621 273.0707 13.13470957165973
